COMMENT,ORIGINATOR,NORAD_CAT_ID,OBJECT_NAME,OBJECT_TYPE,CLASSIFICATION_TYPE,INTLDES,EPOCH,EPOCH_MICROSECONDS,MEAN_MOTION,ECCENTRICITY,INCLINATION,RA_OF_ASC_NODE,ARG_OF_PERICENTER,MEAN_ANOMALY,EPHEMERIS_TYPE,ELEMENT_SET_NO,REV_AT_EPOCH,BSTAR,MEAN_MOTION_DOT,MEAN_MOTION_DDOT,FILE,TLE_LINE0,TLE_LINE1,TLE_LINE2,OBJECT_ID,OBJECT_NUMBER,SEMIMAJOR_AXIS,PERIOD,APOGEE,PERIGEE,DECAYED
"GENERATED VIA SPACETRACK.ORG API","18 SPCS","48883","SPACEBEE-100","PAYLOAD","U","21059E","2023-05-03 08:37:08","899392","15.29076048","0.0006687","97.5879","259.1872","77.4108","282.7879","0","999","10253","0.0009463","0.00026717","0","3899966","0 SPACEBEE-100","1 48883U 21059E   23123.35913078  .00026717  00000-0  94630-3 0  9993","2 48883  97.5879 259.1872 0006687  77.4108 282.7879 15.29076048102532","2021-059E","48883","6856.710","94.175","483.160","473.990","0"
"GENERATED VIA SPACETRACK.ORG API","18 SPCS","48883","SPACEBEE-100","PAYLOAD","U","21059E","2023-05-03 21:11:01","90464","15.29109354","0.0006658","97.588","259.7209","75.6763","284.5216","0","999","10261","0.00097951","0.00027689","0","3900281","0 SPACEBEE-100","1 48883U 21059E   23123.88265151  .00027689  00000-0  97951-3 0  9991","2 48883  97.5880 259.7209 0006658  75.6763 284.5216 15.29109354102610","2021-059E","48883","6856.610","94.172","483.041","473.910","0"
"GENERATED VIA SPACETRACK.ORG API","18 SPCS","48883","SPACEBEE-100","PAYLOAD","U","21059E","2023-05-04 08:10:38","493984","15.29137977","0.0006595","97.5882","260.188","73.8585","286.338","0","999","10268","0.0010544","0.00029847","0","3900745","0 SPACEBEE-100","1 48883U 21059E   23124.34072331  .00029847  00000-0  10544-2 0  9999","2 48883  97.5882 260.1880 0006595  73.8585 286.3380 15.29137977102686","2021-059E","48883","6856.525","94.171","482.912","473.868","0"
"GENERATED VIA SPACETRACK.ORG API","18 SPCS","48883","SPACEBEE-100","PAYLOAD","U","21059E","2023-05-04 08:10:38","493984","15.29137977","0.0006595","97.5882","260.188","73.8585","286.338","0","999","10268","0.0010544","0.00029847","0","3900892","0 SPACEBEE-100","1 48883U 21059E   23124.34072331  .00029847  00000-0  10544-2 0  9999","2 48883  97.5882 260.1880 0006595  73.8585 286.3380 15.29137977102686","2021-059E","48883","6856.525","94.171","482.912","473.868","0"
"GENERATED VIA SPACETRACK.ORG API","18 SPCS","48883","SPACEBEE-100","PAYLOAD","U","21059E","2023-05-04 20:44:28","857696","15.29173776","0.0006577","97.5883","260.7218","71.9118","288.2837","0","999","10276","0.001119","0.00031722","0","3901186","0 SPACEBEE-100","1 48883U 21059E   23124.86422289  .00031722  00000-0  11190-2 0  9990","2 48883  97.5883 260.7218 0006577  71.9118 288.2837 15.29173776102763","2021-059E","48883","6856.418","94.168","482.792","473.773","0"
"GENERATED VIA SPACETRACK.ORG API","18 SPCS","48883","SPACEBEE-100","PAYLOAD","U","21059E","2023-05-05 20:17:53","107584","15.29236791","0.0006531","97.5889","261.7231","68.8285","291.3652","0","999","10291","0.0011106","0.00031544","0","3901993","0 SPACEBEE-100","1 48883U 21059E   23125.84575356  .00031544  00000-0  11106-2 0  9992","2 48883  97.5889 261.7231 0006531  68.8285 291.3652 15.29236791102919","2021-059E","48883","6856.230","94.165","482.572","473.617","0"
"GENERATED VIA SPACETRACK.ORG API","18 SPCS","48883","SPACEBEE-100","PAYLOAD","U","21059E","2023-05-05 21:52:06","601728","15.29240775","0.0006531","97.5889","261.7898","68.6686","291.525","0","999","10292","0.0011105","0.00031545","0","3901892","0 SPACEBEE-100","1 48883U 21059E   23125.91118752  .00031545  00000-0  11105-2 0  9993","2 48883  97.5889 261.7898 0006531  68.6686 291.5250 15.29240775102925","2021-059E","48883","6856.218","94.164","482.560","473.605","0"
"GENERATED VIA SPACETRACK.ORG API","18 SPCS","48883","SPACEBEE-100","PAYLOAD","U","21059E","2023-05-06 08:51:40","587264","15.29275645","0.0006489","97.5891","262.2569","67.0969","293.0954","0","999","10299","0.0013463","0.00038334","0","3902298","0 SPACEBEE-100","1 48883U 21059E   23126.36921976  .00038334  00000-0  13463-2 0  9995","2 48883  97.5891 262.2569 0006489  67.0969 293.0954 15.29275645102997","2021-059E","48883","6856.113","94.162","482.427","473.529","0"
"GENERATED VIA SPACETRACK.ORG API","18 SPCS","48883","SPACEBEE-100","PAYLOAD","U","21059E","2023-05-06 21:25:26","785632","15.29319508","0.0006482","97.5893","262.7909","65.3693","294.8221","0","999","10307","0.0014251","0.0004065","0","3902648","0 SPACEBEE-100","1 48883U 21059E   23126.89267113  .00040650  00000-0  14251-2 0  9999","2 48883  97.5893 262.7909 0006482  65.3693 294.8221 15.29319508103073","2021-059E","48883","6855.982","94.160","482.291","473.403","0"
"GENERATED VIA SPACETRACK.ORG API","18 SPCS","48883","SPACEBEE-100","PAYLOAD","U","21059E","2023-05-07 08:24:58","759776","15.29348913","0.0006428","97.5893","263.2581","63.6886","296.5013","0","999","10314","0.0011764","0.0003354","0","3903215","0 SPACEBEE-100","1 48883U 21059E   23127.35068009  .00033540  00000-0  11764-2 0  9990","2 48883  97.5893 263.2581 0006428  63.6886 296.5013 15.29348913103148","2021-059E","48883","6855.894","94.158","482.166","473.352","0"
"GENERATED VIA SPACETRACK.ORG API","18 SPCS","48883","SPACEBEE-100","PAYLOAD","U","21059E","2023-05-07 14:41:50","920224","15.29368446","0.0006409","97.5893","263.5252","62.7725","297.4167","0","999","10318","0.0012122","0.00034589","0","3903332","0 SPACEBEE-100","1 48883U 21059E   23127.61239491  .00034589  00000-0  12122-2 0  9997","2 48883  97.5893 263.5252 0006409  62.7725 297.4167 15.29368446103184","2021-059E","48883","6855.836","94.157","482.095","473.307","0"
"GENERATED VIA SPACETRACK.ORG API","18 SPCS","48883","SPACEBEE-100","PAYLOAD","U","21059E","2023-05-07 20:58:42","829248","15.29388878","0.0006385","97.5894","263.7922","61.6016","298.5867","0","999","10322","0.0012731","0.00036362","0","3903413","0 SPACEBEE-100","1 48883U 21059E   23127.87410682  .00036362  00000-0  12731-2 0  9995","2 48883  97.5894 263.7922 0006385  61.6016 298.5867 15.29388878103220","2021-059E","48883","6855.775","94.155","482.017","473.263","0"
"GENERATED VIA SPACETRACK.ORG API","18 SPCS","48883","SPACEBEE-100","PAYLOAD","U","21059E","2023-05-08 20:31:55","72992","15.29459871","0.0006323","97.5896","264.7935","58.0581","302.1273","0","999","10337","0.0013599","0.00038944","0","3904247","0 SPACEBEE-100","1 48883U 21059E   23128.85549853  .00038944  00000-0  13599-2 0  9998","2 48883  97.5896 264.7935 0006323  58.0581 302.1273 15.29459871103377","2021-059E","48883","6855.563","94.151","481.763","473.093","0"
"GENERATED VIA SPACETRACK.ORG API","18 SPCS","48883","SPACEBEE-100","PAYLOAD","U","21059E","2023-05-08 22:06:07","733376","15.29465425","0.000632","97.5896","264.8602","57.632","302.5531","0","999","10338","0.0013843","0.00039654","0","3904305","0 SPACEBEE-100","1 48883U 21059E   23128.92092284  .00039654  00000-0  13843-2 0  9998","2 48883  97.5896 264.8602 0006320  57.6320 302.5531 15.29465425103386","2021-059E","48883","6855.546","94.151","481.744","473.079","0"
"GENERATED VIA SPACETRACK.ORG API","18 SPCS","48883","SPACEBEE-100","PAYLOAD","U","21059E","2023-05-09 07:31:23","384640","15.29495333","0.0006304","97.5896","265.2609","56.5904","303.5938","0","999","10344","0.001424","0.00040838","0","3904553","0 SPACEBEE-100","1 48883U 21059E   23129.31346510  .00040838  00000-0  14240-2 0  9994","2 48883  97.5896 265.2609 0006304  56.5904 303.5938 15.29495333103446","2021-059E","48883","6855.457","94.149","481.644","473.000","0"
"GENERATED VIA SPACETRACK.ORG API","18 SPCS","48883","SPACEBEE-100","PAYLOAD","U","21059E","2023-05-10 08:38:41","922816","15.29572933","0.0006254","97.5897","266.3294","52.9755","307.2056","0","999","10360","0.0014121","0.00040591","0","3904555","0 SPACEBEE-100","1 48883U 21059E   23130.36020744  .00040591  00000-0  14121-2 0  9993","2 48883  97.5897 266.3294 0006254  52.9755 307.2056 15.29572933103609","2021-059E","48883","6855.225","94.144","481.377","472.803","0"
"GENERATED VIA SPACETRACK.ORG API","18 SPCS","48883","SPACEBEE-100","PAYLOAD","U","21059E","2023-05-10 08:38:41","922816","15.29572933","0.0006254","97.5897","266.3294","52.9755","307.2056","0","999","10360","0.0014121","0.00040591","0","3904733","0 SPACEBEE-100","1 48883U 21059E   23130.36020744  .00040591  00000-0  14121-2 0  9993","2 48883  97.5897 266.3294 0006254  52.9755 307.2056 15.29572933103609","2021-059E","48883","6855.225","94.144","481.377","472.803","0"
"GENERATED VIA SPACETRACK.ORG API","18 SPCS","48883","SPACEBEE-100","PAYLOAD","U","21059E","2023-05-11 08:11:43","657728","15.2964734","0.0006161","97.5896","267.3308","48.4433","311.7335","0","999","10375","0.0012475","0.00035909","0","3905210","0 SPACEBEE-100","1 48883U 21059E   23131.34147752  .00035909  00000-0  12475-2 0  9998","2 48883  97.5896 267.3308 0006161  48.4433 311.7335 15.29647340103756","2021-059E","48883","6855.003","94.139","481.091","472.644","0"
"GENERATED VIA SPACETRACK.ORG API","18 SPCS","48883","SPACEBEE-100","PAYLOAD","U","21059E","2023-05-12 04:36:17","923104","15.29706444","0.0006145","97.5897","268.1991","45.2667","314.9073","0","999","10388","0.0011615","0.00033478","0","3905759","0 SPACEBEE-100","1 48883U 21059E   23132.19187411  .00033478  00000-0  11615-2 0  9992","2 48883  97.5897 268.1991 0006145  45.2667 314.9073 15.29706444103889","2021-059E","48883","6854.826","94.136","480.903","472.479","0"
"GENERATED VIA SPACETRACK.ORG API","18 SPCS","48883","SPACEBEE-100","PAYLOAD","U","21059E","2023-05-12 07:44:41","371584","15.2971972","0.0006114","97.5896","268.3328","44.3912","315.7817","0","999","10390","0.0012943","0.00037349","0","3906381","0 SPACEBEE-100","1 48883U 21059E   23132.32270106  .00037349  00000-0  12943-2 0  9997","2 48883  97.5896 268.3328 0006114  44.3912 315.7817 15.29719720103902","2021-059E","48883","6854.786","94.135","480.842","472.460","0"
